{
  "type": "FeatureCollection",
  "features": [
    {
      "type": "Feature",
      "properties": {
        "norad_id": 35915,
        "name": "IRIDIUM 33 DEB",
        "group": "iridium-33-debris",
        "lat": 14.575019100487909,
        "lon": 166.64819648972008,
        "alt_km": 626.3012793891112,
        "timestamp": "2025-12-02T13:52:17.646616+00:00",
        "meta_object_name": "IRIDIUM 33 DEB",
        "meta_object_id": "1997-051TY",
        "meta_epoch": "2025-12-01T19:16:49.071072",
        "meta_mean_motion": 14.80276921,
        "meta_eccentricity": 0.00096955,
        "meta_inclination": 86.3446,
        "meta_ra_of_asc_node": 347.9542,
        "meta_arg_of_pericenter": 230.6927,
        "meta_mean_anomaly": 129.3435,
        "meta_ephemeris_type": 0,
        "meta_classification_type": "U",
        "meta_norad_cat_id": 35915,
        "meta_element_set_no": 999,
        "meta_rev_at_epoch": 7924,
        "meta_bstar": 0.0016581633,
        "meta_mean_motion_dot": 0.00012667,
        "meta_mean_motion_ddot": 0,
        "tle_line1": "1 35915U 97051TY  25335.80334573  .00012667  00000+0  16582-2 0  9991",
        "tle_line2": "2 35915  86.3446 347.9542 0009695 230.6927 129.3435 14.80276921 79247"
      },
      "geometry": {
        "type": "Point",
        "coordinates": [
          166.64819648972008,
          14.575019100487909
        ]
      }
    },
    {
      "type": "Feature",
      "properties": {
        "norad_id": 35918,
        "name": "IRIDIUM 33 DEB",
        "group": "iridium-33-debris",
        "lat": -47.02892167947884,
        "lon": 76.3008416584056,
        "alt_km": 735.3825710936844,
        "timestamp": "2025-12-02T13:52:17.646626+00:00",
        "meta_object_name": "IRIDIUM 33 DEB",
        "meta_object_id": "1997-051UB",
        "meta_epoch": "2025-11-30T01:41:55.281408",
        "meta_mean_motion": 14.51050885,
        "meta_eccentricity": 0.00264066,
        "meta_inclination": 86.4001,
        "meta_ra_of_asc_node": 81.2516,
        "meta_arg_of_pericenter": 211.3482,
        "meta_mean_anomaly": 332.4953,
        "meta_ephemeris_type": 0,
        "meta_classification_type": "U",
        "meta_norad_cat_id": 35918,
        "meta_element_set_no": 999,
        "meta_rev_at_epoch": 85023,
        "meta_bstar": 0.0014523463,
        "meta_mean_motion_dot": 5.795e-05,
        "meta_mean_motion_ddot": 0,
        "tle_line1": "1 35918U 97051UB  25334.07077872  .00005795  00000+0  14523-2 0  9995",
        "tle_line2": "2 35918  86.4001  81.2516 0026406 211.3482 332.4953 14.51050885850233"
      },
      "geometry": {
        "type": "Point",
        "coordinates": [
          76.3008416584056,
          -47.02892167947884
        ]
      }
    },
    {
      "type": "Feature",
      "properties": {
        "norad_id": 35929,
        "name": "IRIDIUM 33 DEB",
        "group": "iridium-33-debris",
        "lat": 11.074044513777222,
        "lon": -41.834613456697774,
        "alt_km": 556.2599103019775,
        "timestamp": "2025-12-02T13:52:17.646637+00:00",
        "meta_object_name": "IRIDIUM 33 DEB",
        "meta_object_id": "1997-051UN",
        "meta_epoch": "2025-12-02T05:49:26.498784",
        "meta_mean_motion": 15.01302222,
        "meta_eccentricity": 0.00195506,
        "meta_inclination": 86.3366,
        "meta_ra_of_asc_node": 317.6054,
        "meta_arg_of_pericenter": 65.7136,
        "meta_mean_anomaly": 294.6136,
        "meta_ephemeris_type": 0,
        "meta_classification_type": "U",
        "meta_norad_cat_id": 35929,
        "meta_element_set_no": 999,
        "meta_rev_at_epoch": 87622,
        "meta_bstar": 0.002985863,
        "meta_mean_motion_dot": 0.00038744,
        "meta_mean_motion_ddot": 0,
        "tle_line1": "1 35929U 97051UN  25336.24266781  .00038744  00000+0  29859-2 0  9995",
        "tle_line2": "2 35929  86.3366 317.6054 0019550  65.7136 294.6136 15.01302222876220"
      },
      "geometry": {
        "type": "Point",
        "coordinates": [
          -41.834613456697774,
          11.074044513777222
        ]
      }
    },
    {
      "type": "Feature",
      "properties": {
        "norad_id": 36011,
        "name": "IRIDIUM 33 DEB",
        "group": "iridium-33-debris",
        "lat": 3.1601991560587206,
        "lon": 39.9912334819816,
        "alt_km": 760.905930169888,
        "timestamp": "2025-12-02T13:52:17.646647+00:00",
        "meta_object_name": "IRIDIUM 33 DEB",
        "meta_object_id": "1997-051US",
        "meta_epoch": "2025-11-27T22:48:02.153088",
        "meta_mean_motion": 14.41259363,
        "meta_eccentricity": 0.0016688,
        "meta_inclination": 86.3418,
        "meta_ra_of_asc_node": 41.7752,
        "meta_arg_of_pericenter": 268.8947,
        "meta_mean_anomaly": 217.0188,
        "meta_ephemeris_type": 0,
        "meta_classification_type": "U",
        "meta_norad_cat_id": 36011,
        "meta_element_set_no": 999,
        "meta_rev_at_epoch": 64327,
        "meta_bstar": 0.00058853,
        "meta_mean_motion_dot": 1.923e-05,
        "meta_mean_motion_ddot": 0,
        "tle_line1": "1 36011U 97051US  25331.95002492  .00001923  00000+0  58853-3 0  9994",
        "tle_line2": "2 36011  86.3418  41.7752 0016688 268.8947 217.0188 14.41259363643279"
      },
      "geometry": {
        "type": "Point",
        "coordinates": [
          39.9912334819816,
          3.1601991560587206
        ]
      }
    },
    {
      "type": "Feature",
      "properties": {
        "norad_id": 36012,
        "name": "IRIDIUM 33 DEB",
        "group": "iridium-33-debris",
        "lat": 34.63780374142522,
        "lon": -45.90403600893463,
        "alt_km": 848.786746846019,
        "timestamp": "2025-12-02T13:52:17.646657+00:00",
        "meta_object_name": "IRIDIUM 33 DEB",
        "meta_object_id": "1997-051UT",
        "meta_epoch": "2025-11-30T09:13:21.766944",
        "meta_mean_motion": 14.18317732,
        "meta_eccentricity": 0.02146731,
        "meta_inclination": 86.4437,
        "meta_ra_of_asc_node": 312.5163,
        "meta_arg_of_pericenter": 303.0455,
        "meta_mean_anomaly": 55.0272,
        "meta_ephemeris_type": 0,
        "meta_classification_type": "U",
        "meta_norad_cat_id": 36012,
        "meta_element_set_no": 999,
        "meta_rev_at_epoch": 65309,
        "meta_bstar": 0.0080758053,
        "meta_mean_motion_dot": 0.00020957,
        "meta_mean_motion_ddot": 0,
        "tle_line1": "1 36012U 97051UT  25334.38427971  .00020957  00000+0  80758-2 0  9994",
        "tle_line2": "2 36012  86.4437 312.5163 0214673 303.0455  55.0272 14.18317732653091"
      },
      "geometry": {
        "type": "Point",
        "coordinates": [
          -45.90403600893463,
          34.63780374142522
        ]
      }
    },
    {
      "type": "Feature",
      "properties": {
        "norad_id": 36028,
        "name": "IRIDIUM 33 DEB",
        "group": "iridium-33-debris",
        "lat": -32.79372351953664,
        "lon": 133.85081344133766,
        "alt_km": 600.0239535236997,
        "timestamp": "2025-12-02T13:52:17.646667+00:00",
        "meta_object_name": "IRIDIUM 33 DEB",
        "meta_object_id": "1997-051VK",
        "meta_epoch": "2025-12-02T04:53:22.244352",
        "meta_mean_motion": 14.94476089,
        "meta_eccentricity": 0.00220956,
        "meta_inclination": 86.3209,
        "meta_ra_of_asc_node": 311.6506,
        "meta_arg_of_pericenter": 84.2868,
        "meta_mean_anomaly": 276.0879,
        "meta_ephemeris_type": 0,
        "meta_classification_type": "U",
        "meta_norad_cat_id": 36028,
        "meta_element_set_no": 999,
        "meta_rev_at_epoch": 86967,
        "meta_bstar": 0.0026794337,
        "meta_mean_motion_dot": 0.00029149,
        "meta_mean_motion_ddot": 0,
        "tle_line1": "1 36028U 97051VK  25336.20372968  .00029149  00000+0  26794-2 0  9991",
        "tle_line2": "2 36028  86.3209 311.6506 0022095  84.2868 276.0879 14.94476089869672"
      },
      "geometry": {
        "type": "Point",
        "coordinates": [
          133.85081344133766,
          -32.79372351953664
        ]
      }
    },
    {
      "type": "Feature",
      "properties": {
        "norad_id": 36080,
        "name": "IRIDIUM 33 DEB",
        "group": "iridium-33-debris",
        "lat": 36.10224275089182,
        "lon": 15.103804006012126,
        "alt_km": 745.385299900021,
        "timestamp": "2025-12-02T13:52:17.646677+00:00",
        "meta_object_name": "IRIDIUM 33 DEB",
        "meta_object_id": "1997-051VM",
        "meta_epoch": "2025-11-30T20:11:56.294592",
        "meta_mean_motion": 14.46521856,
        "meta_eccentricity": 0.0017024,
        "meta_inclination": 86.3209,
        "meta_ra_of_asc_node": 13.1702,
        "meta_arg_of_pericenter": 195.0829,
        "meta_mean_anomaly": 164.9869,
        "meta_ephemeris_type": 0,
        "meta_classification_type": "U",
        "meta_norad_cat_id": 36080,
        "meta_element_set_no": 999,
        "meta_rev_at_epoch": 47242,
        "meta_bstar": 0.00064307245,
        "meta_mean_motion_dot": 2.338e-05,
        "meta_mean_motion_ddot": 0,
        "tle_line1": "1 36080U 97051VM  25334.84162378  .00002338  00000+0  64307-3 0  9993",
        "tle_line2": "2 36080  86.3209  13.1702 0017024 195.0829 164.9869 14.46521856472423"
      },
      "geometry": {
        "type": "Point",
        "coordinates": [
          15.103804006012126,
          36.10224275089182
        ]
      }
    }
  ]
}